CCSDS_OMM_VERS = 2.0
CREATION_DATE  = 
ORIGINATOR     = 

OBJECT_NAME    = 2026-023J
OBJECT_ID      = 2026-023J
CENTER_NAME    = EARTH
REF_FRAME      = TEME
TIME_SYSTEM    = UTC
MEAN_ELEMENT_THEORY = SGP/SGP4

EPOCH          = 2026-02-17T20:56:55.357152
MEAN_MOTION    = 15.22697373
ECCENTRICITY   = .0022836
INCLINATION    = 96.6395
RA_OF_ASC_NODE = 126.6275
ARG_OF_PERICENTER = 182.5986
MEAN_ANOMALY   = 177.5138

EPHEMERIS_TYPE = 0
CLASSIFICATION_TYPE = U
NORAD_CAT_ID   = 67682
ELEMENT_SET_NO = 999
REV_AT_EPOCH   = 182
BSTAR          = .55713E-3
MEAN_MOTION_DOT = .13028E-3
MEAN_MOTION_DDOT = 0

CCSDS_OMM_VERS = 2.0
CREATION_DATE  = 
ORIGINATOR     = 

OBJECT_NAME    = ISS OBJECT XZ
OBJECT_ID      = 1998-067XZ
CENTER_NAME    = EARTH
REF_FRAME      = TEME
TIME_SYSTEM    = UTC
MEAN_ELEMENT_THEORY = SGP/SGP4

EPOCH          = 2026-02-17T13:26:20.762592
MEAN_MOTION    = 15.50177657
ECCENTRICITY   = .0010438
INCLINATION    = 51.6311
RA_OF_ASC_NODE = 171.7382
ARG_OF_PERICENTER = 120.3988
MEAN_ANOMALY   = 239.8034

EPHEMERIS_TYPE = 0
CLASSIFICATION_TYPE = U
NORAD_CAT_ID   = 67683
ELEMENT_SET_NO = 999
REV_AT_EPOCH   = 166
BSTAR          = .59633E-3
MEAN_MOTION_DOT = .34002E-3
MEAN_MOTION_DDOT = 0

CCSDS_OMM_VERS = 2.0
CREATION_DATE  = 
ORIGINATOR     = 

OBJECT_NAME    = GXIBA-1
OBJECT_ID      = 1998-067YA
CENTER_NAME    = EARTH
REF_FRAME      = TEME
TIME_SYSTEM    = UTC
MEAN_ELEMENT_THEORY = SGP/SGP4

EPOCH          = 2026-02-17T13:18:50.345568
MEAN_MOTION    = 15.51206196
ECCENTRICITY   = .0012007
INCLINATION    = 51.6311
RA_OF_ASC_NODE = 171.7048
ARG_OF_PERICENTER = 113.2004
MEAN_ANOMALY   = 247.0252

EPHEMERIS_TYPE = 0
CLASSIFICATION_TYPE = U
NORAD_CAT_ID   = 67684
ELEMENT_SET_NO = 999
REV_AT_EPOCH   = 166
BSTAR          = .1004E-2
MEAN_MOTION_DOT = .59962E-3
MEAN_MOTION_DDOT = 0

CCSDS_OMM_VERS = 2.0
CREATION_DATE  = 
ORIGINATOR     = 

OBJECT_NAME    = CORAL
OBJECT_ID      = 1998-067YB
CENTER_NAME    = EARTH
REF_FRAME      = TEME
TIME_SYSTEM    = UTC
MEAN_ELEMENT_THEORY = SGP/SGP4

EPOCH          = 2026-02-17T13:24:54.201024
MEAN_MOTION    = 15.50353124
ECCENTRICITY   = .0012333
INCLINATION    = 51.6309
RA_OF_ASC_NODE = 171.7324
ARG_OF_PERICENTER = 116.1515
MEAN_ANOMALY   = 244.0744

EPHEMERIS_TYPE = 0
CLASSIFICATION_TYPE = U
NORAD_CAT_ID   = 67685
ELEMENT_SET_NO = 999
REV_AT_EPOCH   = 166
BSTAR          = .6699E-3
MEAN_MOTION_DOT = .3855E-3
MEAN_MOTION_DDOT = 0

CCSDS_OMM_VERS = 2.0
CREATION_DATE  = 
ORIGINATOR     = 

OBJECT_NAME    = ISS OBJECT YC
OBJECT_ID      = 1998-067YC
CENTER_NAME    = EARTH
REF_FRAME      = TEME
TIME_SYSTEM    = UTC
MEAN_ELEMENT_THEORY = SGP/SGP4

EPOCH          = 2026-02-17T13:23:32.567712
MEAN_MOTION    = 15.50561623
ECCENTRICITY   = .0007773
INCLINATION    = 51.6320
RA_OF_ASC_NODE = 171.7264
ARG_OF_PERICENTER = 88.8855
MEAN_ANOMALY   = 271.3025

EPHEMERIS_TYPE = 0
CLASSIFICATION_TYPE = U
NORAD_CAT_ID   = 67686
ELEMENT_SET_NO = 999
REV_AT_EPOCH   = 166
BSTAR          = .73145E-3
MEAN_MOTION_DOT = .42395E-3
MEAN_MOTION_DDOT = 0

CCSDS_OMM_VERS = 2.0
CREATION_DATE  = 
ORIGINATOR     = 

OBJECT_NAME    = LEOPARD
OBJECT_ID      = 1998-067YD
CENTER_NAME    = EARTH
REF_FRAME      = TEME
TIME_SYSTEM    = UTC
MEAN_ELEMENT_THEORY = SGP/SGP4

EPOCH          = 2026-02-17T14:58:19.655040
MEAN_MOTION    = 15.50286093
ECCENTRICITY   = .0007889
INCLINATION    = 51.6322
RA_OF_ASC_NODE = 171.4167
ARG_OF_PERICENTER = 91.8390
MEAN_ANOMALY   = 268.3503

EPHEMERIS_TYPE = 0
CLASSIFICATION_TYPE = U
NORAD_CAT_ID   = 67687
ELEMENT_SET_NO = 999
REV_AT_EPOCH   = 159
BSTAR          = .66033E-3
MEAN_MOTION_DOT = .37832E-3
MEAN_MOTION_DDOT = 0

CCSDS_OMM_VERS = 2.0
CREATION_DATE  = 
ORIGINATOR     = 

OBJECT_NAME    = ISS OBJECT YE
OBJECT_ID      = 1998-067YE
CENTER_NAME    = EARTH
REF_FRAME      = TEME
TIME_SYSTEM    = UTC
MEAN_ELEMENT_THEORY = SGP/SGP4

EPOCH          = 2026-02-17T14:56:52.657152
MEAN_MOTION    = 15.50474671
ECCENTRICITY   = .000774
INCLINATION    = 51.6318
RA_OF_ASC_NODE = 171.4087
ARG_OF_PERICENTER = 89.9843
MEAN_ANOMALY   = 270.2033

EPHEMERIS_TYPE = 0
CLASSIFICATION_TYPE = U
NORAD_CAT_ID   = 67688
ELEMENT_SET_NO = 999
REV_AT_EPOCH   = 159
BSTAR          = .74973E-3
MEAN_MOTION_DOT = .43336E-3
MEAN_MOTION_DDOT = 0

CCSDS_OMM_VERS = 2.0
CREATION_DATE  = 
ORIGINATOR     = 

OBJECT_NAME    = PRC TEST SPACECRAFT 4
OBJECT_ID      = 2026-024A
CENTER_NAME    = EARTH
REF_FRAME      = TEME
TIME_SYSTEM    = UTC
MEAN_ELEMENT_THEORY = SGP/SGP4

EPOCH          = 2026-02-17T19:09:27.433152
MEAN_MOTION    = 14.91673826
ECCENTRICITY   = .0006187
INCLINATION    = 49.9851
RA_OF_ASC_NODE = 116.1473
ARG_OF_PERICENTER = 283.4817
MEAN_ANOMALY   = 76.5435

EPHEMERIS_TYPE = 0
CLASSIFICATION_TYPE = U
NORAD_CAT_ID   = 67689
ELEMENT_SET_NO = 999
REV_AT_EPOCH   = 161
BSTAR          = .20038E-4
MEAN_MOTION_DOT = -.41E-6
MEAN_MOTION_DDOT = 0

CCSDS_OMM_VERS = 2.0
CREATION_DATE  = 
ORIGINATOR     = 

OBJECT_NAME    = CZ-2F R/B
OBJECT_ID      = 2026-024B
CENTER_NAME    = EARTH
REF_FRAME      = TEME
TIME_SYSTEM    = UTC
MEAN_ELEMENT_THEORY = SGP/SGP4

EPOCH          = 2026-02-17T15:19:40.492704
MEAN_MOTION    = 15.33472189
ECCENTRICITY   = .0176779
INCLINATION    = 49.9877
RA_OF_ASC_NODE = 115.1022
ARG_OF_PERICENTER = 191.8146
MEAN_ANOMALY   = 167.8639

EPHEMERIS_TYPE = 0
CLASSIFICATION_TYPE = U
NORAD_CAT_ID   = 67690
ELEMENT_SET_NO = 999
REV_AT_EPOCH   = 161
BSTAR          = .38993E-3
MEAN_MOTION_DOT = .20958E-3
MEAN_MOTION_DDOT = 0

CCSDS_OMM_VERS = 2.0
CREATION_DATE  = 
ORIGINATOR     = 

OBJECT_NAME    = CZ-2F DEB
OBJECT_ID      = 2026-024C
CENTER_NAME    = EARTH
REF_FRAME      = TEME
TIME_SYSTEM    = UTC
MEAN_ELEMENT_THEORY = SGP/SGP4

EPOCH          = 2026-02-17T15:13:28.371360
MEAN_MOTION    = 15.69663876
ECCENTRICITY   = .0242734
INCLINATION    = 49.9081
RA_OF_ASC_NODE = 112.7333
ARG_OF_PERICENTER = 199.5749
MEAN_ANOMALY   = 159.5781

EPHEMERIS_TYPE = 0
CLASSIFICATION_TYPE = U
NORAD_CAT_ID   = 67691
ELEMENT_SET_NO = 999
REV_AT_EPOCH   = 163
BSTAR          = .86713E-3
MEAN_MOTION_DOT = .693042E-2
MEAN_MOTION_DDOT = .10338E-4

CCSDS_OMM_VERS = 2.0
CREATION_DATE  = 
ORIGINATOR     = 

OBJECT_NAME    = CZ-2F DEB
OBJECT_ID      = 2026-024D
CENTER_NAME    = EARTH
REF_FRAME      = TEME
TIME_SYSTEM    = UTC
MEAN_ELEMENT_THEORY = SGP/SGP4

EPOCH          = 2026-02-15T11:34:34.569984
MEAN_MOTION    = 15.15710043
ECCENTRICITY   = .0264941
INCLINATION    = 50.3154
RA_OF_ASC_NODE = 127.0852
ARG_OF_PERICENTER = 192.7826
MEAN_ANOMALY   = 266.1908

EPHEMERIS_TYPE = 0
CLASSIFICATION_TYPE = U
NORAD_CAT_ID   = 67692
ELEMENT_SET_NO = 999
REV_AT_EPOCH   = 62
BSTAR          = .50496E-2
MEAN_MOTION_DOT = .250388E-2
MEAN_MOTION_DDOT = 0

CCSDS_OMM_VERS = 2.0
CREATION_DATE  = 
ORIGINATOR     = 

OBJECT_NAME    = STARLINK-36748
OBJECT_ID      = 2026-025A
CENTER_NAME    = EARTH
REF_FRAME      = TEME
TIME_SYSTEM    = UTC
MEAN_ELEMENT_THEORY = SGP/SGP4

EPOCH          = 2026-02-17T20:00:01.999008
MEAN_MOTION    = 15.94270335
ECCENTRICITY   = .0001514
INCLINATION    = 97.2788
RA_OF_ASC_NODE = 159.2976
ARG_OF_PERICENTER = 66.1313
MEAN_ANOMALY   = 357.1581

EPHEMERIS_TYPE = 0
CLASSIFICATION_TYPE = U
NORAD_CAT_ID   = 67693
ELEMENT_SET_NO = 999
REV_AT_EPOCH   = 265
BSTAR          = -.44074E-2
MEAN_MOTION_DOT = -.1620872E-1
MEAN_MOTION_DDOT = .7537E-3

