2026-023J               
1 67682U 26023J   26048.87286293  .00013028  00000+0  55713-3 0  9994
2 67682  96.6395 126.6275 0022836 182.5986 177.5138 15.22697373  1826
ISS OBJECT XZ           
1 67683U 98067XZ  26048.55996253  .00034002  00000+0  59633-3 0  9991
2 67683  51.6311 171.7382 0010438 120.3988 239.8034 15.50177657  1661
GXIBA-1                 
1 67684U 98067YA  26048.55474937  .00059962  00000+0  10040-2 0  9992
2 67684  51.6311 171.7048 0012007 113.2004 247.0252 15.51206196  1660
CORAL                   
1 67685U 98067YB  26048.55896066  .00038550  00000+0  66990-3 0  9990
2 67685  51.6309 171.7324 0012333 116.1515 244.0744 15.50353124  1662
ISS OBJECT YC           
1 67686U 98067YC  26048.55801583  .00042395  00000+0  73145-3 0  9993
2 67686  51.6320 171.7264 0007773  88.8855 271.3025 15.50561623  1663
LEOPARD                 
1 67687U 98067YD  26048.62383860  .00037832  00000+0  66033-3 0  9993
2 67687  51.6322 171.4167 0007889  91.8390 268.3503 15.50286093  1595
ISS OBJECT YE           
1 67688U 98067YE  26048.62283168  .00043336  00000+0  74973-3 0  9992
2 67688  51.6318 171.4087 0007740  89.9843 270.2033 15.50474671  1590
PRC TEST SPACECRAFT 4   
1 67689U 26024A   26048.79823418 -.00000041  00000+0  20038-4 0  9994
2 67689  49.9851 116.1473 0006187 283.4817  76.5435 14.91673826  1617
CZ-2F R/B               
1 67690U 26024B   26048.63866311  .00020958  00000+0  38993-3 0  9994
2 67690  49.9877 115.1022 0176779 191.8146 167.8639 15.33472189  1614
CZ-2F DEB               
1 67691U 26024C   26048.63435615  .00693042  10338-4  86713-3 0  9997
2 67691  49.9081 112.7333 0242734 199.5749 159.5781 15.69663876  1631
CZ-2F DEB               
1 67692U 26024D   26046.48234456  .00250388  00000+0  50496-2 0  9999
2 67692  50.3154 127.0852 0264941 192.7826 266.1908 15.15710043   623
STARLINK-36748          
1 67693U 26025A   26048.83335647 -.01620872  75370-3 -44074-2 0  9999
2 67693  97.2788 159.2976 0001514  66.1313 357.1581 15.94270335  2656
